CCSDS_OMM_VERS = 2.0
CREATION_DATE  = 
ORIGINATOR     = 

OBJECT_NAME    = STARLINK-36498
OBJECT_ID      = 2026-002P
CENTER_NAME    = EARTH
REF_FRAME      = TEME
TIME_SYSTEM    = UTC
MEAN_ELEMENT_THEORY = SGP/SGP4

EPOCH          = 2026-01-13T06:00:02.000160
MEAN_MOTION    = 15.94013210
ECCENTRICITY   = .00019208
INCLINATION    = 42.9981
RA_OF_ASC_NODE = 286.6458
ARG_OF_PERICENTER = 275.2136
MEAN_ANOMALY   = 158.5717

EPHEMERIS_TYPE = 0
CLASSIFICATION_TYPE = U
NORAD_CAT_ID   = 67318
ELEMENT_SET_NO = 999
REV_AT_EPOCH   = 256
BSTAR          = -.35838448E-2
MEAN_MOTION_DOT = -.1367878E-1
MEAN_MOTION_DDOT = .54649224E-3

CCSDS_OMM_VERS = 2.0
CREATION_DATE  = 
ORIGINATOR     = 

OBJECT_NAME    = STARLINK-36470
OBJECT_ID      = 2026-002Q
CENTER_NAME    = EARTH
REF_FRAME      = TEME
TIME_SYSTEM    = UTC
MEAN_ELEMENT_THEORY = SGP/SGP4

EPOCH          = 2026-01-13T06:00:02.000160
MEAN_MOTION    = 15.93959758
ECCENTRICITY   = .00018685
INCLINATION    = 42.9984
RA_OF_ASC_NODE = 286.6514
ARG_OF_PERICENTER = 273.9392
MEAN_ANOMALY   = 157.6475

EPHEMERIS_TYPE = 0
CLASSIFICATION_TYPE = U
NORAD_CAT_ID   = 67319
ELEMENT_SET_NO = 999
REV_AT_EPOCH   = 256
BSTAR          = -.35793909E-2
MEAN_MOTION_DOT = -.1362343E-1
MEAN_MOTION_DDOT = .54216141E-3

CCSDS_OMM_VERS = 2.0
CREATION_DATE  = 
ORIGINATOR     = 

OBJECT_NAME    = STARLINK-36500
OBJECT_ID      = 2026-002R
CENTER_NAME    = EARTH
REF_FRAME      = TEME
TIME_SYSTEM    = UTC
MEAN_ELEMENT_THEORY = SGP/SGP4

EPOCH          = 2026-01-13T06:00:02.000160
MEAN_MOTION    = 15.94070539
ECCENTRICITY   = .00019081
INCLINATION    = 42.9985
RA_OF_ASC_NODE = 286.6409
ARG_OF_PERICENTER = 275.5802
MEAN_ANOMALY   = 160.3321

EPHEMERIS_TYPE = 0
CLASSIFICATION_TYPE = U
NORAD_CAT_ID   = 67320
ELEMENT_SET_NO = 999
REV_AT_EPOCH   = 256
BSTAR          = -.35980659E-2
MEAN_MOTION_DOT = -.1377395E-1
MEAN_MOTION_DDOT = .5537932E-3

CCSDS_OMM_VERS = 2.0
CREATION_DATE  = 
ORIGINATOR     = 

OBJECT_NAME    = STARLINK-36462
OBJECT_ID      = 2026-002S
CENTER_NAME    = EARTH
REF_FRAME      = TEME
TIME_SYSTEM    = UTC
MEAN_ELEMENT_THEORY = SGP/SGP4

EPOCH          = 2026-01-13T06:00:02.000160
MEAN_MOTION    = 15.94180754
ECCENTRICITY   = .00019492
INCLINATION    = 42.9985
RA_OF_ASC_NODE = 286.6293
ARG_OF_PERICENTER = 276.7117
MEAN_ANOMALY   = 163.7315

EPHEMERIS_TYPE = 0
CLASSIFICATION_TYPE = U
NORAD_CAT_ID   = 67321
ELEMENT_SET_NO = 999
REV_AT_EPOCH   = 250
BSTAR          = -.35998831E-2
MEAN_MOTION_DOT = -.1386129E-1
MEAN_MOTION_DDOT = .56085734E-3

CCSDS_OMM_VERS = 2.0
CREATION_DATE  = 
ORIGINATOR     = 

OBJECT_NAME    = STARLINK-36434
OBJECT_ID      = 2026-002T
CENTER_NAME    = EARTH
REF_FRAME      = TEME
TIME_SYSTEM    = UTC
MEAN_ELEMENT_THEORY = SGP/SGP4

EPOCH          = 2026-01-13T06:00:02.000160
MEAN_MOTION    = 15.94137931
ECCENTRICITY   = .00018891
INCLINATION    = 42.9986
RA_OF_ASC_NODE = 286.6332
ARG_OF_PERICENTER = 277.0974
MEAN_ANOMALY   = 161.7546

EPHEMERIS_TYPE = 0
CLASSIFICATION_TYPE = U
NORAD_CAT_ID   = 67322
ELEMENT_SET_NO = 999
REV_AT_EPOCH   = 250
BSTAR          = -.36116028E-2
MEAN_MOTION_DOT = -.1387434E-1
MEAN_MOTION_DDOT = .56158698E-3

CCSDS_OMM_VERS = 2.0
CREATION_DATE  = 
ORIGINATOR     = 

OBJECT_NAME    = STARLINK-36497
OBJECT_ID      = 2026-002U
CENTER_NAME    = EARTH
REF_FRAME      = TEME
TIME_SYSTEM    = UTC
MEAN_ELEMENT_THEORY = SGP/SGP4

EPOCH          = 2026-01-13T06:00:02.000160
MEAN_MOTION    = 15.94231047
ECCENTRICITY   = .00019422
INCLINATION    = 42.9986
RA_OF_ASC_NODE = 286.6235
ARG_OF_PERICENTER = 278.0515
MEAN_ANOMALY   = 164.6373

EPHEMERIS_TYPE = 0
CLASSIFICATION_TYPE = U
NORAD_CAT_ID   = 67323
ELEMENT_SET_NO = 999
REV_AT_EPOCH   = 256
BSTAR          = -.35901302E-2
MEAN_MOTION_DOT = -.138609E-1
MEAN_MOTION_DDOT = .56110892E-3

CCSDS_OMM_VERS = 2.0
CREATION_DATE  = 
ORIGINATOR     = 

OBJECT_NAME    = STARLINK-36471
OBJECT_ID      = 2026-002V
CENTER_NAME    = EARTH
REF_FRAME      = TEME
TIME_SYSTEM    = UTC
MEAN_ELEMENT_THEORY = SGP/SGP4

EPOCH          = 2026-01-13T06:00:02.000160
MEAN_MOTION    = 15.94362937
ECCENTRICITY   = .00019582
INCLINATION    = 42.9990
RA_OF_ASC_NODE = 286.6100
ARG_OF_PERICENTER = 278.7949
MEAN_ANOMALY   = 169.3371

EPHEMERIS_TYPE = 0
CLASSIFICATION_TYPE = U
NORAD_CAT_ID   = 67324
ELEMENT_SET_NO = 999
REV_AT_EPOCH   = 250
BSTAR          = -.36141717E-2
MEAN_MOTION_DOT = -.1405027E-1
MEAN_MOTION_DDOT = .57599471E-3

CCSDS_OMM_VERS = 2.0
CREATION_DATE  = 
ORIGINATOR     = 

OBJECT_NAME    = STARLINK-36473
OBJECT_ID      = 2026-002W
CENTER_NAME    = EARTH
REF_FRAME      = TEME
TIME_SYSTEM    = UTC
MEAN_ELEMENT_THEORY = SGP/SGP4

EPOCH          = 2026-01-13T06:00:02.000160
MEAN_MOTION    = 15.94306060
ECCENTRICITY   = .00019059
INCLINATION    = 42.9987
RA_OF_ASC_NODE = 286.6163
ARG_OF_PERICENTER = 278.9637
MEAN_ANOMALY   = 166.6935

EPHEMERIS_TYPE = 0
CLASSIFICATION_TYPE = U
NORAD_CAT_ID   = 67325
ELEMENT_SET_NO = 999
REV_AT_EPOCH   = 266
BSTAR          = -.36249904E-2
MEAN_MOTION_DOT = -.1404939E-1
MEAN_MOTION_DDOT = .57560217E-3

CCSDS_OMM_VERS = 2.0
CREATION_DATE  = 
ORIGINATOR     = 

OBJECT_NAME    = STARLINK-36430
OBJECT_ID      = 2026-002X
CENTER_NAME    = EARTH
REF_FRAME      = TEME
TIME_SYSTEM    = UTC
MEAN_ELEMENT_THEORY = SGP/SGP4

EPOCH          = 2026-01-13T06:00:02.000160
MEAN_MOTION    = 15.94495824
ECCENTRICITY   = .00018447
INCLINATION    = 42.9986
RA_OF_ASC_NODE = 286.5972
ARG_OF_PERICENTER = 275.6521
MEAN_ANOMALY   = 177.5282

EPHEMERIS_TYPE = 0
CLASSIFICATION_TYPE = U
NORAD_CAT_ID   = 67326
ELEMENT_SET_NO = 999
REV_AT_EPOCH   = 266
BSTAR          = -.3652196E-2
MEAN_MOTION_DOT = -.1429623E-1
MEAN_MOTION_DDOT = .59540692E-3

CCSDS_OMM_VERS = 2.0
CREATION_DATE  = 
ORIGINATOR     = 

OBJECT_NAME    = STARLINK-36501
OBJECT_ID      = 2026-002Y
CENTER_NAME    = EARTH
REF_FRAME      = TEME
TIME_SYSTEM    = UTC
MEAN_ELEMENT_THEORY = SGP/SGP4

EPOCH          = 2026-01-13T06:00:02.000160
MEAN_MOTION    = 15.94424770
ECCENTRICITY   = .00018843
INCLINATION    = 42.9988
RA_OF_ASC_NODE = 286.6038
ARG_OF_PERICENTER = 279.5924
MEAN_ANOMALY   = 170.9611

EPHEMERIS_TYPE = 0
CLASSIFICATION_TYPE = U
NORAD_CAT_ID   = 67327
ELEMENT_SET_NO = 999
REV_AT_EPOCH   = 250
BSTAR          = -.36188062E-2
MEAN_MOTION_DOT = -.1411397E-1
MEAN_MOTION_DDOT = .58114903E-3

CCSDS_OMM_VERS = 2.0
CREATION_DATE  = 
ORIGINATOR     = 

OBJECT_NAME    = STARLINK-36489
OBJECT_ID      = 2026-002Z
CENTER_NAME    = EARTH
REF_FRAME      = TEME
TIME_SYSTEM    = UTC
MEAN_ELEMENT_THEORY = SGP/SGP4

EPOCH          = 2026-01-13T06:00:02.000160
MEAN_MOTION    = 15.94563117
ECCENTRICITY   = .00018505
INCLINATION    = 42.9985
RA_OF_ASC_NODE = 286.5898
ARG_OF_PERICENTER = 275.9239
MEAN_ANOMALY   = 180.1051

EPHEMERIS_TYPE = 0
CLASSIFICATION_TYPE = U
NORAD_CAT_ID   = 67328
ELEMENT_SET_NO = 999
REV_AT_EPOCH   = 266
BSTAR          = -.36463316E-2
MEAN_MOTION_DOT = -.1432455E-1
MEAN_MOTION_DDOT = .5979729E-3

CCSDS_OMM_VERS = 2.0
CREATION_DATE  = 
ORIGINATOR     = 

OBJECT_NAME    = STARLINK-36496
OBJECT_ID      = 2026-002AA
CENTER_NAME    = EARTH
REF_FRAME      = TEME
TIME_SYSTEM    = UTC
MEAN_ELEMENT_THEORY = SGP/SGP4

EPOCH          = 2026-01-13T06:00:02.000160
MEAN_MOTION    = 15.94684546
ECCENTRICITY   = .00018639
INCLINATION    = 42.9985
RA_OF_ASC_NODE = 286.5777
ARG_OF_PERICENTER = 275.4060
MEAN_ANOMALY   = 185.3182

EPHEMERIS_TYPE = 0
CLASSIFICATION_TYPE = U
NORAD_CAT_ID   = 67329
ELEMENT_SET_NO = 999
REV_AT_EPOCH   = 248
BSTAR          = -.36371004E-2
MEAN_MOTION_DOT = -.1438107E-1
MEAN_MOTION_DDOT = .60303998E-3

