STARLINK-36498          
1 67318U 26002P   26013.25002315 -.01367878  54649-3 -35838-2 0  9997
2 67318  42.9981 286.6458 0001920 275.2136 158.5717 15.94013210  2560
STARLINK-36470          
1 67319U 26002Q   26013.25002315 -.01362343  54216-3 -35794-2 0  9991
2 67319  42.9984 286.6514 0001868 273.9392 157.6475 15.93959758  2563
STARLINK-36500          
1 67320U 26002R   26013.25002315 -.01377395  55379-3 -35981-2 0  9995
2 67320  42.9985 286.6409 0001908 275.5802 160.3321 15.94070539  2561
STARLINK-36462          
1 67321U 26002S   26013.25002315 -.01386129  56086-3 -35999-2 0  9996
2 67321  42.9985 286.6293 0001949 276.7117 163.7315 15.94180754  2505
STARLINK-36434          
1 67322U 26002T   26013.25002315 -.01387434  56159-3 -36116-2 0  9990
2 67322  42.9986 286.6332 0001889 277.0974 161.7546 15.94137931  2502
STARLINK-36497          
1 67323U 26002U   26013.25002315 -.01386090  56111-3 -35901-2 0  9997
2 67323  42.9986 286.6235 0001942 278.0515 164.6373 15.94231047  2566
STARLINK-36471          
1 67324U 26002V   26013.25002315 -.01405027  57599-3 -36142-2 0  9999
2 67324  42.9990 286.6100 0001958 278.7949 169.3371 15.94362937  2505
STARLINK-36473          
1 67325U 26002W   26013.25002315 -.01404939  57560-3 -36250-2 0  9999
2 67325  42.9987 286.6163 0001905 278.9637 166.6935 15.94306060  2667
STARLINK-36430          
1 67326U 26002X   26013.25002315 -.01429623  59541-3 -36522-2 0  9990
2 67326  42.9986 286.5972 0001844 275.6521 177.5282 15.94495824  2665
STARLINK-36501          
1 67327U 26002Y   26013.25002315 -.01411397  58115-3 -36188-2 0  9994
2 67327  42.9988 286.6038 0001884 279.5924 170.9611 15.94424770  2504
STARLINK-36489          
1 67328U 26002Z   26013.25002315 -.01432455  59797-3 -36463-2 0  9996
2 67328  42.9985 286.5898 0001850 275.9239 180.1051 15.94563117  2664
STARLINK-36496          
1 67329U 26002AA  26013.25002315 -.01438107  60304-3 -36371-2 0  9991
2 67329  42.9985 286.5777 0001863 275.4060 185.3182 15.94684546  2484
